{"type": "FeatureCollection", "features": [ {"type": "Feature", "properties": {"norad_id": 33867, "name": "IRIDIUM 33 DEB", "group": "iridium-33-debris", "lat": 23.756337051797114, "lon": 167.6820676613713, "alt_km": 351.4528316503047, "timestamp": "2025-12-14T07:33:19.863145+00:00", "meta": {"OBJECT_NAME": "IRIDIUM 33 DEB", "OBJECT_ID": "1997-051AL", "EPOCH": "2025-12-13T11:00:51.103584", "MEAN_MOTION": 15.69513123, "ECCENTRICITY": 0.00135062, "INCLINATION": 86.3647, "RA_OF_ASC_NODE": 349.7316, "ARG_OF_PERICENTER": 86.7609, "MEAN_ANOMALY": 273.5205, "EPHEMERIS_TYPE": 0, "CLASSIFICATION_TYPE": "U", "NORAD_CAT_ID": 33867, "ELEMENT_SET_NO": 999, "REV_AT_EPOCH": 89522, "BSTAR": 0.009754286, "MEAN_MOTION_DOT": 0.01280958, "MEAN_MOTION_DDOT": 0}, "tle": {"line1": "1 33867U 97051AL  25347.45892481  .01280958  00000+0  97543-2 0  9993", "line2": "2 33867  86.3647 349.7316 0013506  86.7609 273.5205 15.69513123895223"}}, "geometry": {"type": "Point", "coordinates": [167.6820676613713, 23.756337051797114]}}, {"type": "Feature", "properties": {"norad_id": 33870, "name": "IRIDIUM 33 DEB", "group": "iridium-33-debris", "lat": -59.51114043584102, "lon": -116.23279992333609, "alt_km": 740.3089494060941, "timestamp": "2025-12-14T07:33:19.863156+00:00", "meta": {"OBJECT_NAME": "IRIDIUM 33 DEB", "OBJECT_ID": "1997-051AP", "EPOCH": "2025-12-13T16:12:19.115136", "MEAN_MOTION": 14.4585926, "ECCENTRICITY": 0.00215612, "INCLINATION": 86.3746, "RA_OF_ASC_NODE": 57.8596, "ARG_OF_PERICENTER": 175.0874, "MEAN_ANOMALY": 337.312, "EPHEMERIS_TYPE": 0, "CLASSIFICATION_TYPE": "U", "NORAD_CAT_ID": 33870, "ELEMENT_SET_NO": 999, "REV_AT_EPOCH": 88150, "BSTAR": 0.00098702425, "MEAN_MOTION_DOT": 3.533e-05, "MEAN_MOTION_DDOT": 0}, "tle": {"line1": "1 33870U 97051AP  25347.67522124  .00003533  00000+0  98702-3 0  9995", "line2": "2 33870  86.3746  57.8596 0021561 175.0874 337.3120 14.45859260881509"}}, "geometry": {"type": "Point", "coordinates": [-116.23279992333609, -59.51114043584102]}}, {"type": "Feature", "properties": {"norad_id": 33881, "name": "IRIDIUM 33 DEB", "group": "iridium-33-debris", "lat": 11.40777897178324, "lon": -74.6731507986066, "alt_km": 662.1027425193088, "timestamp": "2025-12-14T07:33:19.863166+00:00", "meta": {"OBJECT_NAME": "IRIDIUM 33 DEB", "OBJECT_ID": "1997-051BA", "EPOCH": "2025-12-13T14:22:24.801024", "MEAN_MOTION": 14.56598716, "ECCENTRICITY": 0.0061436, "INCLINATION": 86.3857, "RA_OF_ASC_NODE": 106.3688, "ARG_OF_PERICENTER": 171.9908, "MEAN_ANOMALY": 204.794, "EPHEMERIS_TYPE": 0, "CLASSIFICATION_TYPE": "U", "NORAD_CAT_ID": 33881, "ELEMENT_SET_NO": 999, "REV_AT_EPOCH": 87513, "BSTAR": 0.0023975957, "MEAN_MOTION_DOT": 0.0001099, "MEAN_MOTION_DDOT": 0}, "tle": {"line1": "1 33881U 97051BA  25347.59889816  .00010990  00000+0  23976-2 0  9997", "line2": "2 33881  86.3857 106.3688 0061436 171.9908 204.7940 14.56598716875131"}}, "geometry": {"type": "Point", "coordinates": [-74.6731507986066, 11.40777897178324]}}, {"type": "Feature", "properties": {"norad_id": 33884, "name": "IRIDIUM 33 DEB", "group": "iridium-33-debris", "lat": -53.02639704500119, "lon": -166.05549896860273, "alt_km": 643.7996399351878, "timestamp": "2025-12-14T07:33:19.863177+00:00", "meta": {"OBJECT_NAME": "IRIDIUM 33 DEB", "OBJECT_ID": "1997-051BD", "EPOCH": "2025-12-13T14:48:38.291904", "MEAN_MOTION": 14.77455092, "ECCENTRICITY": 0.00096969, "INCLINATION": 86.3704, "RA_OF_ASC_NODE": 9.4226, "ARG_OF_PERICENTER": 320.4846, "MEAN_ANOMALY": 164.1732, "EPHEMERIS_TYPE": 0, "CLASSIFICATION_TYPE": "U", "NORAD_CAT_ID": 33884, "ELEMENT_SET_NO": 999, "REV_AT_EPOCH": 88860, "BSTAR": 0.0017122447, "MEAN_MOTION_DOT": 0.00012236, "MEAN_MOTION_DDOT": 0}, "tle": {"line1": "1 33884U 97051BD  25347.61710986  .00012236  00000+0  17122-2 0  9995", "line2": "2 33884  86.3704   9.4226 0009696 320.4846 164.1732 14.77455092888604"}}, "geometry": {"type": "Point", "coordinates": [-166.05549896860273, -53.02639704500119]}}, {"type": "Feature", "properties": {"norad_id": 33886, "name": "IRIDIUM 33 DEB", "group": "iridium-33-debris", "lat": -74.94809181778963, "lon": 52.961885419374134, "alt_km": 773.0746748234196, "timestamp": "2025-12-14T07:33:19.863188+00:00", "meta": {"OBJECT_NAME": "IRIDIUM 33 DEB", "OBJECT_ID": "1997-051BF", "EPOCH": "2025-12-13T15:43:50.042784", "MEAN_MOTION": 14.36053343, "ECCENTRICITY": 0.00123677, "INCLINATION": 86.383, "RA_OF_ASC_NODE": 66.8435, "ARG_OF_PERICENTER": 238.6343, "MEAN_ANOMALY": 239.2491, "EPHEMERIS_TYPE": 0, "CLASSIFICATION_TYPE": "U", "NORAD_CAT_ID": 33886, "ELEMENT_SET_NO": 999, "REV_AT_EPOCH": 88065, "BSTAR": 0.00027622734, "MEAN_MOTION_DOT": 8.23e-06, "MEAN_MOTION_DDOT": 0}, "tle": {"line1": "1 33886U 97051BF  25347.65544031  .00000823  00000+0  27623-3 0  9994", "line2": "2 33886  86.3830  66.8435 0012367 238.6343 239.2491 14.36053343880657"}}, "geometry": {"type": "Point", "coordinates": [52.961885419374134, -74.94809181778963]}}, {"type": "Feature", "properties": {"norad_id": 33887, "name": "IRIDIUM 33 DEB", "group": "iridium-33-debris", "lat": -47.38909512101043, "lon": -173.25746728490338, "alt_km": 771.3947094430887, "timestamp": "2025-12-14T07:33:19.863199+00:00", "meta": {"OBJECT_NAME": "IRIDIUM 33 DEB", "OBJECT_ID": "1997-051BG", "EPOCH": "2025-12-13T09:05:12.158016", "MEAN_MOTION": 14.37221952, "ECCENTRICITY": 0.00044911, "INCLINATION": 86.3045, "RA_OF_ASC_NODE": 3.117, "ARG_OF_PERICENTER": 223.9007, "MEAN_ANOMALY": 202.6908, "EPHEMERIS_TYPE": 0, "CLASSIFICATION_TYPE": "U", "NORAD_CAT_ID": 33887, "ELEMENT_SET_NO": 999, "REV_AT_EPOCH": 88174, "BSTAR": 0.00022215424, "MEAN_MOTION_DOT": 6.81e-06, "MEAN_MOTION_DDOT": 0}, "tle": {"line1": "1 33887U 97051BG  25347.37861294  .00000681  00000+0  22215-3 0  9991", "line2": "2 33887  86.3045   3.1170 0004491 223.9007 202.6908 14.37221952881741"}}, "geometry": {"type": "Point", "coordinates": [-173.25746728490338, -47.38909512101043]}}, {"type": "Feature", "properties": {"norad_id": 33953, "name": "IRIDIUM 33 DEB", "group": "iridium-33-debris", "lat": -5.840354662537794, "lon": -126.53380293905677, "alt_km": 711.5326508540702, "timestamp": "2025-12-14T07:33:19.863209+00:00", "meta": {"OBJECT_NAME": "IRIDIUM 33 DEB", "OBJECT_ID": "1997-051BN", "EPOCH": "2025-12-13T10:57:18.016992", "MEAN_MOTION": 14.55340408, "ECCENTRICITY": 0.00183507, "INCLINATION": 86.3846, "RA_OF_ASC_NODE": 53.4681, "ARG_OF_PERICENTER": 100.6821, "MEAN_ANOMALY": 270.6003, "EPHEMERIS_TYPE": 0, "CLASSIFICATION_TYPE": "U", "NORAD_CAT_ID": 33953, "ELEMENT_SET_NO": 999, "REV_AT_EPOCH": 88314, "BSTAR": 0.0019195798, "MEAN_MOTION_DOT": 8.367e-05, "MEAN_MOTION_DDOT": 0}, "tle": {"line1": "1 33953U 97051BN  25347.45645853  .00008367  00000+0  19196-2 0  9997", "line2": "2 33953  86.3846  53.4681 0018350 100.6821 270.6003 14.55340408883148"}}, "geometry": {"type": "Point", "coordinates": [-126.53380293905677, -5.840354662537794]}}, {"type": "Feature", "properties": {"norad_id": 33960, "name": "IRIDIUM 33 DEB", "group": "iridium-33-debris", "lat": 20.5631064554717, "lon": 107.36302629670489, "alt_km": 613.613462394429, "timestamp": "2025-12-14T07:33:19.863220+00:00", "meta": {"OBJECT_NAME": "IRIDIUM 33 DEB", "OBJECT_ID": "1997-051BV", "EPOCH": "2025-12-13T08:46:06.481920", "MEAN_MOTION": 14.85254819, "ECCENTRICITY": 0.00074666, "INCLINATION": 86.2528, "RA_OF_ASC_NODE": 289.2196, "ARG_OF_PERICENTER": 61.7284, "MEAN_ANOMALY": 63.9916, "EPHEMERIS_TYPE": 0, "CLASSIFICATION_TYPE": "U", "NORAD_CAT_ID": 33960, "ELEMENT_SET_NO": 999, "REV_AT_EPOCH": 88876, "BSTAR": 0.0052453084, "MEAN_MOTION_DOT": 0.00045289, "MEAN_MOTION_DDOT": 0}, "tle": {"line1": "1 33960U 97051BV  25347.36535280  .00045289  00000+0  52453-2 0  9994", "line2": "2 33960  86.2528 289.2196 0007466  61.7284  63.9916 14.85254819888760"}}, "geometry": {"type": "Point", "coordinates": [107.36302629670489, 20.5631064554717]}}, {"type": "Feature", "properties": {"norad_id": 33966, "name": "IRIDIUM 33 DEB", "group": "iridium-33-debris", "lat": -80.20966962924847, "lon": 23.90787394559117, "alt_km": 734.9663810616821, "timestamp": "2025-12-14T07:33:19.863231+00:00", "meta": {"OBJECT_NAME": "IRIDIUM 33 DEB", "OBJECT_ID": "1997-051CB", "EPOCH": "2025-12-13T15:55:10.824672", "MEAN_MOTION": 14.49599839, "ECCENTRICITY": 0.00075315, "INCLINATION": 86.3927, "RA_OF_ASC_NODE": 45.6309, "ARG_OF_PERICENTER": 185.0605, "MEAN_ANOMALY": 296.2992, "EPHEMERIS_TYPE": 0, "CLASSIFICATION_TYPE": "U", "NORAD_CAT_ID": 33966, "ELEMENT_SET_NO": 999, "REV_AT_EPOCH": 88455, "BSTAR": 0.00068967677, "MEAN_MOTION_DOT": 2.668e-05, "MEAN_MOTION_DDOT": 0}, "tle": {"line1": "1 33966U 97051CB  25347.66331973  .00002668  00000+0  68968-3 0  9999", "line2": "2 33966  86.3927  45.6309 0007531 185.0605 296.2992 14.49599839884552"}}, "geometry": {"type": "Point", "coordinates": [23.90787394559117, -80.20966962924847]}}, {"type": "Feature", "properties": {"norad_id": 34071, "name": "IRIDIUM 33 DEB", "group": "iridium-33-debris", "lat": -15.492125793408146, "lon": 16.129131414427928, "alt_km": 735.5594839444411, "timestamp": "2025-12-14T07:33:19.863241+00:00", "meta": {"OBJECT_NAME": "IRIDIUM 33 DEB", "OBJECT_ID": "1997-051CE", "EPOCH": "2025-12-13T15:03:31.156416", "MEAN_MOTION": 14.4947049, "ECCENTRICITY": 0.00099405, "INCLINATION": 86.3461, "RA_OF_ASC_NODE": 17.4426, "ARG_OF_PERICENTER": 105.1963, "MEAN_ANOMALY": 255.0341, "EPHEMERIS_TYPE": 0, "CLASSIFICATION_TYPE": "U", "NORAD_CAT_ID": 34071, "ELEMENT_SET_NO": 999, "REV_AT_EPOCH": 88347, "BSTAR": 0.00076335919, "MEAN_MOTION_DOT": 2.943e-05, "MEAN_MOTION_DDOT": 0}, "tle": {"line1": "1 34071U 97051CE  25347.62744394  .00002943  00000+0  76336-3 0  9992", "line2": "2 34071  86.3461  17.4426 0009940 105.1963 255.0341 14.49470490883478"}}, "geometry": {"type": "Point", "coordinates": [16.129131414427928, -15.492125793408146]}}]}